STARLINK-2491
1 28148C 21027BJ  21325.15034149  .00001862  00000-0  12470-3 0  3254
2 28148  53.0556  17.5652 0001484  68.3440 151.2314 15.06404928    16
